{"epoch":1784710044,"count":18256,"objects":[{"id":"56193","name":"HAWK-7B","type":"PAYLOAD","l1":"1 56193U 23054R   26202.23969811  .00004049  00000-0  15238-3 0  9998","l2":"2 56193  97.2682  86.9863 0000702   2.2557 357.8685 15.27674337182222"},{"id":"56200","name":"HAWK-7C","type":"PAYLOAD","l1":"1 56200U 23054Y   26202.56707573  .00004524  00000-0  16992-3 0  9994","l2":"2 56200  97.2656  88.0639 0000340 296.0111  64.1094 15.27677282182272"},{"id":"59443","name":"HAWK-8A","type":"PAYLOAD","l1":"1 59443U 24066B   26202.16180682  .00000612  00000-0  68029-4 0  9995","l2":"2 59443  45.5992 100.9626 0003397 244.2384 115.8147 14.99293154124937"},{"id":"59445","name":"HAWK-8B","type":"PAYLOAD","l1":"1 59445U 24066D   26202.42880920  .00000498  00000-0  58901-4 0  9998","l2":"2 59445  45.6178 101.5725 0003592 247.6507 112.3994 14.99292452124969"},{"id":"59446","name":"HAWK-9A","type":"PAYLOAD","l1":"1 59446U 24066E   26202.11875663  .00000916  00000-0  92729-4 0  9994","l2":"2 59446  45.6101 101.8398 0003227 230.8094 129.2501 14.99227119124920"},{"id":"59448","name":"HAWK-9C","type":"PAYLOAD","l1":"1 59448U 24066G   26201.98575562  .00000837  00000-0  86343-4 0  9992","l2":"2 59448  45.6072 101.6247 0003127 216.5324 143.5345 14.99225219124908"},{"id":"59449","name":"HAWK-8C","type":"PAYLOAD","l1":"1 59449U 24066H   26202.09510274  .00000786  00000-0  82122-4 0  9999","l2":"2 59449  45.6079 102.3111 0003075 251.4557 108.5991 14.99300150124919"},{"id":"59450","name":"HAWK-9B","type":"PAYLOAD","l1":"1 59450U 24066J   26202.31898113  .00001000  00000-0  99556-4 0  9996","l2":"2 59450  45.6126 101.7423 0003457 214.3635 145.7023 14.99223273124955"},{"id":"60540","name":"HAWK-10A","type":"PAYLOAD","l1":"1 60540U 24149CA  26202.46946775  .00000820  00000-0  77027-4 0  9992","l2":"2 60540  97.6877 277.7915 0002495 337.0954  23.0156 14.96599123105114"},{"id":"60545","name":"HAWK-10B","type":"PAYLOAD","l1":"1 60545U 24149CF  26202.40247450  .00000877  00000-0  82075-4 0  9996","l2":"2 60545  97.6796 277.0460 0004724 352.4092   7.7057 14.96598379105108"},{"id":"60575","name":"HAWK-10C","type":"PAYLOAD","l1":"1 60575U 24149DM  26202.40281958  .00000955  00000-0  88856-4 0  9990","l2":"2 60575  97.6715 276.3501 0002069 320.0848  40.0221 14.96597683105100"},{"id":"62379","name":"HAWK-11B","type":"PAYLOAD","l1":"1 62379U 24247C   26202.10915135  .00004805  00000-0  16880-3 0  9996","l2":"2 62379  45.0159 103.7503 0002335  66.0747 294.0382 15.30721366 88205"},{"id":"62381","name":"HAWK-11C","type":"PAYLOAD","l1":"1 62381U 24247E   26202.43501134  .00005163  00000-0  18059-3 0  9993","l2":"2 62381  45.0045 101.2874 0003124  50.9900 309.1262 15.30721375 88256"},{"id":"62382","name":"HAWK-11A","type":"PAYLOAD","l1":"1 62382U 24247F   26202.43510936  .00005289  00000-0  18475-3 0  9995","l2":"2 62382  44.9942 100.6094 0002597  50.3555 309.7558 15.30718925 88252"},{"id":"64621","name":"HAWK-12C","type":"PAYLOAD","l1":"1 64621U 25138A   26202.44422035  .00003049  00000-0  15101-3 0  9991","l2":"2 64621  97.4360 204.3124 0014747  31.0884 329.1220 15.18436833 59064"},{"id":"64622","name":"HAWK-12B","type":"PAYLOAD","l1":"1 64622U 25138B   26202.44439584  .00003054  00000-0  15135-3 0  9992","l2":"2 64622  97.4484 205.0160 0013596  27.1854 333.0089 15.18436117 59066"}]}