{"fetched_at":"2026-07-22T07:09:45.765Z","source":"https://celestrak.org/NORAD/elements/gp.php?NAME=HAWK&FORMAT=JSON","constellation":"hawkeye-360","records":[{"OBJECT_NAME":"HAWK-7B","OBJECT_ID":"2023-054R","EPOCH":"2026-07-21T05:45:09.916704","CLASSIFICATION_TYPE":"U","MEAN_MOTION":15.27674337,"ECCENTRICITY":0.00007015,"INCLINATION":97.2682,"RA_OF_ASC_NODE":86.9863,"ARG_OF_PERICENTER":2.2557,"MEAN_ANOMALY":357.8685,"EPHEMERIS_TYPE":0,"NORAD_CAT_ID":56193,"ELEMENT_SET_NO":999,"REV_AT_EPOCH":18222,"BSTAR":0.0001523771,"MEAN_MOTION_DOT":0.00004049,"MEAN_MOTION_DDOT":0},{"OBJECT_NAME":"HAWK-7C","OBJECT_ID":"2023-054Y","EPOCH":"2026-07-21T13:36:35.343072","CLASSIFICATION_TYPE":"U","MEAN_MOTION":15.27677282,"ECCENTRICITY":0.00003401,"INCLINATION":97.2656,"RA_OF_ASC_NODE":88.0639,"ARG_OF_PERICENTER":296.0111,"MEAN_ANOMALY":64.1094,"EPHEMERIS_TYPE":0,"NORAD_CAT_ID":56200,"ELEMENT_SET_NO":999,"REV_AT_EPOCH":18227,"BSTAR":0.0001699216,"MEAN_MOTION_DOT":0.00004524,"MEAN_MOTION_DDOT":0},{"OBJECT_NAME":"HAWK-8A","OBJECT_ID":"2024-066B","EPOCH":"2026-07-21T03:53:00.109248","CLASSIFICATION_TYPE":"U","MEAN_MOTION":14.99293154,"ECCENTRICITY":0.00033973,"INCLINATION":45.5992,"RA_OF_ASC_NODE":100.9626,"ARG_OF_PERICENTER":244.2384,"MEAN_ANOMALY":115.8147,"EPHEMERIS_TYPE":0,"NORAD_CAT_ID":59443,"ELEMENT_SET_NO":999,"REV_AT_EPOCH":12493,"BSTAR":0.000068029289,"MEAN_MOTION_DOT":0.00000612,"MEAN_MOTION_DDOT":0},{"OBJECT_NAME":"HAWK-8B","OBJECT_ID":"2024-066D","EPOCH":"2026-07-21T10:17:29.114880","CLASSIFICATION_TYPE":"U","MEAN_MOTION":14.99292452,"ECCENTRICITY":0.00035916,"INCLINATION":45.6178,"RA_OF_ASC_NODE":101.5725,"ARG_OF_PERICENTER":247.6507,"MEAN_ANOMALY":112.3994,"EPHEMERIS_TYPE":0,"NORAD_CAT_ID":59445,"ELEMENT_SET_NO":999,"REV_AT_EPOCH":12496,"BSTAR":0.000058900598,"MEAN_MOTION_DOT":0.00000498,"MEAN_MOTION_DDOT":0},{"OBJECT_NAME":"HAWK-9A","OBJECT_ID":"2024-066E","EPOCH":"2026-07-21T02:51:00.572832","CLASSIFICATION_TYPE":"U","MEAN_MOTION":14.99227119,"ECCENTRICITY":0.00032274,"INCLINATION":45.6101,"RA_OF_ASC_NODE":101.8398,"ARG_OF_PERICENTER":230.8094,"MEAN_ANOMALY":129.2501,"EPHEMERIS_TYPE":0,"NORAD_CAT_ID":59446,"ELEMENT_SET_NO":999,"REV_AT_EPOCH":12492,"BSTAR":0.000092728861,"MEAN_MOTION_DOT":0.00000916,"MEAN_MOTION_DDOT":0},{"OBJECT_NAME":"HAWK-9C","OBJECT_ID":"2024-066G","EPOCH":"2026-07-20T23:39:29.285568","CLASSIFICATION_TYPE":"U","MEAN_MOTION":14.99225219,"ECCENTRICITY":0.0003127,"INCLINATION":45.6072,"RA_OF_ASC_NODE":101.6247,"ARG_OF_PERICENTER":216.5324,"MEAN_ANOMALY":143.5345,"EPHEMERIS_TYPE":0,"NORAD_CAT_ID":59448,"ELEMENT_SET_NO":999,"REV_AT_EPOCH":12490,"BSTAR":0.000086343377,"MEAN_MOTION_DOT":0.00000837,"MEAN_MOTION_DDOT":0},{"OBJECT_NAME":"HAWK-8C","OBJECT_ID":"2024-066H","EPOCH":"2026-07-21T02:16:56.876736","CLASSIFICATION_TYPE":"U","MEAN_MOTION":14.9930015,"ECCENTRICITY":0.00030746,"INCLINATION":45.6079,"RA_OF_ASC_NODE":102.3111,"ARG_OF_PERICENTER":251.4557,"MEAN_ANOMALY":108.5991,"EPHEMERIS_TYPE":0,"NORAD_CAT_ID":59449,"ELEMENT_SET_NO":999,"REV_AT_EPOCH":12491,"BSTAR":0.000082122418,"MEAN_MOTION_DOT":0.00000786,"MEAN_MOTION_DDOT":0},{"OBJECT_NAME":"HAWK-9B","OBJECT_ID":"2024-066J","EPOCH":"2026-07-21T07:39:19.969632","CLASSIFICATION_TYPE":"U","MEAN_MOTION":14.99223273,"ECCENTRICITY":0.00034574,"INCLINATION":45.6126,"RA_OF_ASC_NODE":101.7423,"ARG_OF_PERICENTER":214.3635,"MEAN_ANOMALY":145.7023,"EPHEMERIS_TYPE":0,"NORAD_CAT_ID":59450,"ELEMENT_SET_NO":999,"REV_AT_EPOCH":12495,"BSTAR":0.000099556051,"MEAN_MOTION_DOT":0.00001,"MEAN_MOTION_DDOT":0},{"OBJECT_NAME":"HAWK-10A","OBJECT_ID":"2024-149CA","EPOCH":"2026-07-21T11:16:02.013600","CLASSIFICATION_TYPE":"U","MEAN_MOTION":14.96599123,"ECCENTRICITY":0.00024953,"INCLINATION":97.6877,"RA_OF_ASC_NODE":277.7915,"ARG_OF_PERICENTER":337.0954,"MEAN_ANOMALY":23.0156,"EPHEMERIS_TYPE":0,"NORAD_CAT_ID":60540,"ELEMENT_SET_NO":999,"REV_AT_EPOCH":10511,"BSTAR":0.000077027132,"MEAN_MOTION_DOT":0.0000082,"MEAN_MOTION_DDOT":0},{"OBJECT_NAME":"HAWK-10B","OBJECT_ID":"2024-149CF","EPOCH":"2026-07-21T09:39:33.796800","CLASSIFICATION_TYPE":"U","MEAN_MOTION":14.96598379,"ECCENTRICITY":0.00047245,"INCLINATION":97.6796,"RA_OF_ASC_NODE":277.046,"ARG_OF_PERICENTER":352.4092,"MEAN_ANOMALY":7.7057,"EPHEMERIS_TYPE":0,"NORAD_CAT_ID":60545,"ELEMENT_SET_NO":999,"REV_AT_EPOCH":10510,"BSTAR":0.000082075485,"MEAN_MOTION_DOT":0.00000877,"MEAN_MOTION_DDOT":0},{"OBJECT_NAME":"HAWK-10C","OBJECT_ID":"2024-149DM","EPOCH":"2026-07-21T09:40:03.611712","CLASSIFICATION_TYPE":"U","MEAN_MOTION":14.96597683,"ECCENTRICITY":0.0002069,"INCLINATION":97.6715,"RA_OF_ASC_NODE":276.3501,"ARG_OF_PERICENTER":320.0848,"MEAN_ANOMALY":40.0221,"EPHEMERIS_TYPE":0,"NORAD_CAT_ID":60575,"ELEMENT_SET_NO":999,"REV_AT_EPOCH":10510,"BSTAR":0.000088856478,"MEAN_MOTION_DOT":0.00000955,"MEAN_MOTION_DDOT":0},{"OBJECT_NAME":"HAWK-11B","OBJECT_ID":"2024-247C","EPOCH":"2026-07-21T02:37:10.676640","CLASSIFICATION_TYPE":"U","MEAN_MOTION":15.30721366,"ECCENTRICITY":0.0002335,"INCLINATION":45.0159,"RA_OF_ASC_NODE":103.7503,"ARG_OF_PERICENTER":66.0747,"MEAN_ANOMALY":294.0382,"EPHEMERIS_TYPE":0,"NORAD_CAT_ID":62379,"ELEMENT_SET_NO":999,"REV_AT_EPOCH":8820,"BSTAR":0.0001688009,"MEAN_MOTION_DOT":0.00004805,"MEAN_MOTION_DDOT":0},{"OBJECT_NAME":"HAWK-11C","OBJECT_ID":"2024-247E","EPOCH":"2026-07-21T10:26:24.979776","CLASSIFICATION_TYPE":"U","MEAN_MOTION":15.30721375,"ECCENTRICITY":0.00031238,"INCLINATION":45.0045,"RA_OF_ASC_NODE":101.2874,"ARG_OF_PERICENTER":50.99,"MEAN_ANOMALY":309.1262,"EPHEMERIS_TYPE":0,"NORAD_CAT_ID":62381,"ELEMENT_SET_NO":999,"REV_AT_EPOCH":8825,"BSTAR":0.00018059123,"MEAN_MOTION_DOT":0.00005163,"MEAN_MOTION_DDOT":0},{"OBJECT_NAME":"HAWK-11A","OBJECT_ID":"2024-247F","EPOCH":"2026-07-21T10:26:33.448704","CLASSIFICATION_TYPE":"U","MEAN_MOTION":15.30718925,"ECCENTRICITY":0.00025969,"INCLINATION":44.9942,"RA_OF_ASC_NODE":100.6094,"ARG_OF_PERICENTER":50.3555,"MEAN_ANOMALY":309.7558,"EPHEMERIS_TYPE":0,"NORAD_CAT_ID":62382,"ELEMENT_SET_NO":999,"REV_AT_EPOCH":8825,"BSTAR":0.00018474855,"MEAN_MOTION_DOT":0.00005289,"MEAN_MOTION_DDOT":0},{"OBJECT_NAME":"HAWK-12C","OBJECT_ID":"2025-138A","EPOCH":"2026-07-21T10:39:40.638240","CLASSIFICATION_TYPE":"U","MEAN_MOTION":15.18436833,"ECCENTRICITY":0.00147465,"INCLINATION":97.436,"RA_OF_ASC_NODE":204.3124,"ARG_OF_PERICENTER":31.0884,"MEAN_ANOMALY":329.122,"EPHEMERIS_TYPE":0,"NORAD_CAT_ID":64621,"ELEMENT_SET_NO":999,"REV_AT_EPOCH":5906,"BSTAR":0.00015100994,"MEAN_MOTION_DOT":0.00003049,"MEAN_MOTION_DDOT":0},{"OBJECT_NAME":"HAWK-12B","OBJECT_ID":"2025-138B","EPOCH":"2026-07-21T10:39:55.800576","CLASSIFICATION_TYPE":"U","MEAN_MOTION":15.18436117,"ECCENTRICITY":0.00135965,"INCLINATION":97.4484,"RA_OF_ASC_NODE":205.016,"ARG_OF_PERICENTER":27.1854,"MEAN_ANOMALY":333.0089,"EPHEMERIS_TYPE":0,"NORAD_CAT_ID":64622,"ELEMENT_SET_NO":999,"REV_AT_EPOCH":5906,"BSTAR":0.00015134503,"MEAN_MOTION_DOT":0.00003054,"MEAN_MOTION_DDOT":0}]}
